stk.v.11.0
WrittenBy    formation-sat-exporter

BEGIN Ephemeris
    NumberOfEphemerisPoints 181
    ScenarioEpoch 21 Mar 2026 07:38:40.000000000
    InterpolationMethod     Lagrange
    InterpolationOrder      7
    CentralBody             Earth
    CoordinateSystem        TEME
    DistanceUnit            Kilometers

    BEGIN EphemerisTimePosVel
        0.000000000  5.77895902607343e+03 -1.39220902750807e+03  3.47151003744753e+03 -3.95324354861025e+00 -2.58310011643916e-01  6.46901182162249e+00
        1.000000000  5.77500578252482e+03 -1.39246733751972e+03  3.47797904926916e+03 -3.95674997489760e+00 -2.57464543386479e-01  6.46690008743294e+00
        2.000000000  5.77104552612363e+03 -1.39272395659484e+03  3.48444383762240e+03 -3.96376042291103e+00 -2.55773451059708e-01  6.46267269380880e+00
        3.000000000  5.76707826167899e+03 -1.39297888442184e+03  3.49090439465677e+03 -3.97076605754858e+00 -2.54082048135810e-01  6.45843745226646e+00
        4.000000000  5.76310399400853e+03 -1.39323212069112e+03  3.49736071252693e+03 -3.97776687030308e+00 -2.52390336668352e-01  6.45419436794962e+00
        5.000000000  5.75912272793839e+03 -1.39348366509517e+03  3.50381278339267e+03 -3.98476285267435e+00 -2.50698318711831e-01  6.44994344601058e+00
        6.000000000  5.75513446830319e+03 -1.39373351732854e+03  3.51026059941895e+03 -3.99175399616733e+00 -2.49005996320979e-01  6.44568469161168e+00
        7.000000000  5.75113921994605e+03 -1.39398167708781e+03  3.51670415277590e+03 -3.99874029229116e+00 -2.47313371550757e-01  6.44141810992337e+00
        8.000000000  5.74713698771860e+03 -1.39422814407164e+03  3.52314343563880e+03 -4.00572173256287e+00 -2.45620446456829e-01  6.43714370612870e+00
        9.000000000  5.74312777648093e+03 -1.39447291798073e+03  3.52957844018815e+03 -4.01269830850465e+00 -2.43927223094623e-01  6.43286148541747e+00
        10.000000000  5.73911159110159e+03 -1.39471599851783e+03  3.53600915860964e+03 -4.01967001164286e+00 -2.42233703520265e-01  6.42857145298785e+00
        11.000000000  5.73508843645764e+03 -1.39495738538777e+03  3.54243558309413e+03 -4.02663683351269e+00 -2.40539889790700e-01  6.42427361405245e+00
        12.000000000  5.73105831743457e+03 -1.39519707829741e+03  3.54885770583774e+03 -4.03359876565542e+00 -2.38845783962752e-01  6.41996797382925e+00
        13.000000000  5.72702123892633e+03 -1.39543507695569e+03  3.55527551904179e+03 -4.04055579961464e+00 -2.37151388093364e-01  6.41565453754552e+00
        14.000000000  5.72297720583534e+03 -1.39567138107360e+03  3.56168901491283e+03 -4.04750792694232e+00 -2.35456704240176e-01  6.41133331044018e+00
        15.000000000  5.71892622307245e+03 -1.39590599036417e+03  3.56809818566267e+03 -4.05445513919741e+00 -2.33761734461295e-01  6.40700429776101e+00
        16.000000000  5.71486829555694e+03 -1.39613890454252e+03  3.57450302350835e+03 -4.06139742794307e+00 -2.32066480814712e-01  6.40266750476509e+00
        17.000000000  5.71080342821656e+03 -1.39637012332580e+03  3.58090352067220e+03 -4.06833478474850e+00 -2.30370945359347e-01  6.39832293671859e+00
        18.000000000  5.70673162598745e+03 -1.39659964643324e+03  3.58729966938179e+03 -4.07526720118988e+00 -2.28675130154123e-01  6.39397059889720e+00
        19.000000000  5.70265289381418e+03 -1.39682747358611e+03  3.59369146186999e+03 -4.08219466884853e+00 -2.26979037258192e-01  6.38961049658479e+00
        20.000000000  5.69856723664975e+03 -1.39705360450776e+03  3.60007889037496e+03 -4.08911717931274e+00 -2.25282668731292e-01  6.38524263507803e+00
        21.000000000  5.69447465945556e+03 -1.39727803892357e+03  3.60646194714015e+03 -4.09603472417500e+00 -2.23586026633275e-01  6.38086701968056e+00
        22.000000000  5.69037516720140e+03 -1.39750077656102e+03  3.61284062441432e+03 -4.10294729503524e+00 -2.21889113024692e-01  6.37648365570535e+00
        23.000000000  5.68626876486549e+03 -1.39772181714962e+03  3.61921491445156e+03 -4.10985488350084e+00 -2.20191929966095e-01  6.37209254847583e+00
        24.000000000  5.68215545743440e+03 -1.39794116042096e+03  3.62558480951127e+03 -4.11675748118246e+00 -2.18494479518267e-01  6.36769370332337e+00
        25.000000000  5.67803524990312e+03 -1.39815880610866e+03  3.63195030185821e+03 -4.12365507969772e+00 -2.16796763742692e-01  6.36328712559096e+00
        26.000000000  5.67390814727500e+03 -1.39837475394844e+03  3.63831138376245e+03 -4.13054767067079e+00 -2.15098784700967e-01  6.35887282062904e+00
        27.000000000  5.66977415456178e+03 -1.39858900367806e+03  3.64466804749946e+03 -4.13743524573091e+00 -2.13400544454926e-01  6.35445079379831e+00
        28.000000000  5.66563327678354e+03 -1.39880155503735e+03  3.65102028535005e+03 -4.14431779651623e+00 -2.11702045066981e-01  6.35002105046925e+00
        29.000000000  5.66148551896875e+03 -1.39901240776820e+03  3.65736808960040e+03 -4.15119531466626e+00 -2.10003288599663e-01  6.34558359601931e+00
        30.000000000  5.65733088615421e+03 -1.39922156161455e+03  3.66371145254209e+03 -4.15806779183075e+00 -2.08304277115618e-01  6.34113843583805e+00
        31.000000000  5.65316938338509e+03 -1.39942901632243e+03  3.67005036647208e+03 -4.16493521966599e+00 -2.06605012678192e-01  6.33668557532434e+00
        32.000000000  5.64900101571488e+03 -1.39963477163991e+03  3.67638482369274e+03 -4.17179758982966e+00 -2.04905497350963e-01  6.33222501988406e+00
        33.000000000  5.64482578820543e+03 -1.39983882731713e+03  3.68271481651185e+03 -4.17865489398921e+00 -2.03205733197625e-01  6.32775677493517e+00
        34.000000000  5.64064370592690e+03 -1.40004118310630e+03  3.68904033724261e+03 -4.18550712381722e+00 -2.01505722282338e-01  6.32328084590286e+00
        35.000000000  5.63645477395779e+03 -1.40024183876169e+03  3.69536137820365e+03 -4.19235427099466e+00 -1.99805466669495e-01  6.31879723822186e+00
        36.000000000  5.63225899738491e+03 -1.40044079403964e+03  3.70167793171905e+03 -4.19919632720528e+00 -1.98104968423722e-01  6.31430595733784e+00
        37.000000000  5.62805638130338e+03 -1.40063804869854e+03  3.70798999011833e+03 -4.20603328413935e+00 -1.96404229610111e-01  6.30980700870510e+00
        38.000000000  5.62384693081663e+03 -1.40083360249886e+03  3.71429754573646e+03 -4.21286513349507e+00 -1.94703252293984e-01  6.30530039778608e+00
        39.000000000  5.61963065103639e+03 -1.40102745520313e+03  3.72060059091390e+03 -4.21969186697807e+00 -1.93002038540784e-01  6.30078613005299e+00
        40.000000000  5.61540754708267e+03 -1.40121960657594e+03  3.72689911799657e+03 -4.22651347629819e+00 -1.91300590416067e-01  6.29626421098877e+00
        41.000000000  5.61117762408379e+03 -1.40141005638396e+03  3.73319311933588e+03 -4.23332995316898e+00 -1.89598909986438e-01  6.29173464608402e+00
        42.000000000  5.60694088717634e+03 -1.40159880439592e+03  3.73948258728874e+03 -4.24014128931426e+00 -1.87896999318618e-01  6.28719744083961e+00
        43.000000000  5.60269734150517e+03 -1.40178585038260e+03  3.74576751421756e+03 -4.24694747646293e+00 -1.86194860478863e-01  6.28265260076453e+00
        44.000000000  5.59844699222341e+03 -1.40197119411687e+03  3.75204789249027e+03 -4.25374850634998e+00 -1.84492495533894e-01  6.27810013137828e+00
        45.000000000  5.59418984449247e+03 -1.40215483537367e+03  3.75832371448031e+03 -4.26054437071644e+00 -1.82789906551247e-01  6.27354003820918e+00
        46.000000000  5.58992590348198e+03 -1.40233677392998e+03  3.76459497256668e+03 -4.26733506130986e+00 -1.81087095598807e-01  6.26897232679487e+00
        47.000000000  5.58565517436985e+03 -1.40251700956486e+03  3.77086165913390e+03 -4.27412056988431e+00 -1.79384064743994e-01  6.26439700268209e+00
        48.000000000  5.58137766234221e+03 -1.40269554205946e+03  3.77712376657205e+03 -4.28090088819899e+00 -1.77680816054810e-01  6.25981407142593e+00
        49.000000000  5.57709337259345e+03 -1.40287237119697e+03  3.78338128727676e+03 -4.28767600802099e+00 -1.75977351599722e-01  6.25522353859269e+00
        50.000000000  5.57280231032617e+03 -1.40304749676266e+03  3.78963421364923e+03 -4.29444592112256e+00 -1.74273673447315e-01  6.25062540975702e+00
        51.000000000  5.56850448075120e+03 -1.40322091854387e+03  3.79588253809627e+03 -4.30121061928244e+00 -1.72569783666520e-01  6.24601969050150e+00
        52.000000000  5.56419988908760e+03 -1.40339263633000e+03  3.80212625303024e+03 -4.30797009428684e+00 -1.70865684326505e-01  6.24140638641990e+00
        53.000000000  5.55988854056263e+03 -1.40356264991252e+03  3.80836535086911e+03 -4.31472433792707e+00 -1.69161377496202e-01  6.23678550311504e+00
        54.000000000  5.55557044041175e+03 -1.40373095908499e+03  3.81459982403647e+03 -4.32147334200097e+00 -1.67456865245593e-01  6.23215704619675e+00
        55.000000000  5.55124559387863e+03 -1.40389756364301e+03  3.82082966496150e+03 -4.32821709831199e+00 -1.65752149644773e-01  6.22752102128603e+00
        56.000000000  5.54691400621512e+03 -1.40406246338428e+03  3.82705486607904e+03 -4.33495559867285e+00 -1.64047232763260e-01  6.22287743401341e+00
        57.000000000  5.54257568268128e+03 -1.40422565810854e+03  3.83327541982953e+03 -4.34168883490004e+00 -1.62342116671847e-01  6.21822629001737e+00
        58.000000000  5.53823062854533e+03 -1.40438714761762e+03  3.83949131865907e+03 -4.34841679881513e+00 -1.60636803441099e-01  6.21356759494543e+00
        59.000000000  5.53387884908365e+03 -1.40454693171542e+03  3.84570255501942e+03 -4.35513948225137e+00 -1.58931295141578e-01  6.20890135445586e+00
        60.000000000  5.52952034958082e+03 -1.40470501020790e+03  3.85190912136798e+03 -4.36185687704245e+00 -1.57225593844662e-01  6.20422757421434e+00
        61.000000000  5.52515513532957e+03 -1.40486138290311e+03  3.85811101016785e+03 -4.36856897503138e+00 -1.55519701621495e-01  6.19954625989590e+00
    END EphemerisTimePosVel
END Ephemeris
